{"type":"FeatureCollection","features":[{"type":"Feature","properties":{"featurecla":"Admin-0 country","scalerank":3,"labelrank":6,"sovereignt":"France","sov_a3":"FR1","adm0_dif":1,"level":2,"type":"Dependency","tlc":"1","admin":"French Southern and Antarctic Lands","adm0_a3":"ATF","geou_dif":0,"geounit":"French Southern and Antarctic Lands","gu_a3":"ATF","su_dif":0,"subunit":"French Southern and Antarctic Lands","su_a3":"ATF","brk_diff":0,"name":"Fr. S. Antarctic Lands","name_long":"French Southern and Antarctic Lands","brk_a3":"ATF","brk_name":"Fr. S. and Antarctic Lands","brk_group":null,"abbrev":"Fr. S.A.L.","postal":"TF","formal_en":"Territory of the French Southern and Antarctic Lands","formal_fr":null,"name_ciawf":null,"note_adm0":"Fr.","note_brk":null,"name_sort":"French Southern and Antarctic Lands","name_alt":null,"mapcolor7":7,"mapcolor8":5,"mapcolor9":9,"mapcolor13":11,"pop_est":140,"pop_rank":1,"pop_year":2017,"gdp_md":16,"gdp_year":2016,"economy":"6. Developing region","income_grp":"2. High income: nonOECD","fips_10":"FS","iso_a2":"TF","iso_a2_eh":"TF","iso_a3":"ATF","iso_a3_eh":"ATF","iso_n3":"260","iso_n3_eh":"260","un_a3":"260","wb_a2":"-99","wb_a3":"-99","woe_id":28289406,"woe_id_eh":28289406,"woe_note":"Exact WOE match as country","adm0_iso":"ATF","adm0_diff":null,"adm0_tlc":"ATF","adm0_a3_us":"ATF","adm0_a3_fr":"ATF","adm0_a3_ru":"ATF","adm0_a3_es":"ATF","adm0_a3_cn":"ATF","adm0_a3_tw":"ATF","adm0_a3_in":"ATF","adm0_a3_np":"ATF","adm0_a3_pk":"ATF","adm0_a3_de":"ATF","adm0_a3_gb":"ATF","adm0_a3_br":"ATF","adm0_a3_il":"ATF","adm0_a3_ps":"ATF","adm0_a3_sa":"ATF","adm0_a3_eg":"ATF","adm0_a3_ma":"ATF","adm0_a3_pt":"ATF","adm0_a3_ar":"ATF","adm0_a3_jp":"ATF","adm0_a3_ko":"ATF","adm0_a3_vn":"ATF","adm0_a3_tr":"ATF","adm0_a3_id":"ATF","adm0_a3_pl":"ATF","adm0_a3_gr":"ATF","adm0_a3_it":"ATF","adm0_a3_nl":"ATF","adm0_a3_se":"ATF","adm0_a3_bd":"ATF","adm0_a3_ua":"ATF","adm0_a3_un":-99,"adm0_a3_wb":-99,"continent":"Seven seas (open ocean)","region_un":"Africa","subregion":"Seven seas (open ocean)","region_wb":"Sub-Saharan Africa","name_len":22,"long_len":35,"abbrev_len":10,"tiny":2,"homepart":-99,"min_zoom":0,"min_label":4,"max_label":9,"label_x":69.122136,"label_y":-49.303721,"ne_id":1159320631,"wikidataid":"Q129003","name_ar":"أراض فرنسية جنوبية وأنتارتيكية","name_bn":"ফ্র. এস. অ্যান্ড অ্যান্টার্কটিক ল্যান্ড","name_de":"Französische Süd- und Antarktisgebiete","name_en":"French Southern and Antarctic Lands","name_es":"Tierras Australes y Antárticas Francesas","name_fa":"سرزمینهای جنوبی و جنوبگانی فرانسه","name_fr":"Terres australes et antarctiques françaises","name_el":"Γαλλικά Νότια και Ανταρκτικά Εδάφη","name_he":"הארצות הדרומיות והאנטארקטיות של צרפת","name_hi":"दक्षिण फ्रांसीसी और अंटार्कटिक लैंड","name_hu":"Francia déli és antarktiszi területek","name_id":"Daratan Selatan dan Antarktika Perancis","name_it":"Terre australi e antartiche francesi","name_ja":"フランス領南方・南極地域","name_ko":"프랑스령 남방 및 남극","name_nl":"Franse Zuidelijke Gebieden","name_pl":"Francuskie Terytoria Południowe i Antarktyczne","name_pt":"Terras Austrais e Antárticas Francesas","name_ru":"Французские Южные и Антарктические территории","name_sv":"Franska sydterritorierna","name_tr":"Fransız Güney ve Antarktika Toprakları","name_uk":"Французькі Південні і Антарктичні території","name_ur":"سرزمین جنوبی فرانسیسیہ و انٹارکٹیکا","name_vi":"Vùng đất phía Nam và châu Nam Cực thuộc Pháp","name_zh":"法属南部和南极领地","name_zht":"法屬南部和南極領地","fclass_iso":"Admin-0 dependency","tlc_diff":null,"fclass_tlc":"Admin-0 dependency","fclass_us":null,"fclass_fr":null,"fclass_ru":null,"fclass_es":null,"fclass_cn":null,"fclass_tw":null,"fclass_in":null,"fclass_np":null,"fclass_pk":null,"fclass_de":null,"fclass_gb":null,"fclass_br":null,"fclass_il":null,"fclass_ps":null,"fclass_sa":null,"fclass_eg":null,"fclass_ma":null,"fclass_pt":null,"fclass_ar":null,"fclass_jp":null,"fclass_ko":null,"fclass_vn":null,"fclass_tr":null,"fclass_id":null,"fclass_pl":null,"fclass_gr":null,"fclass_it":null,"fclass_nl":null,"fclass_se":null,"fclass_bd":null,"fclass_ua":null,"filename":"ATF.geojson"},"geometry":{"type":"Polygon","coordinates":[[[68.935,-48.625],[69.58,-48.94],[70.525,-49.065],[70.56,-49.255],[70.28,-49.71],[68.745,-49.775],[68.72,-49.2425],[68.8675,-48.83],[68.935,-48.625]]]}},{"type":"Feature","properties":{"featurecla":"Admin-0 country","scalerank":1,"labelrank":2,"sovereignt":"Turkey","sov_a3":"TUR","adm0_dif":0,"level":2,"type":"Sovereign country","tlc":"1","admin":"Turkey","adm0_a3":"TUR","geou_dif":0,"geounit":"Turkey","gu_a3":"TUR","su_dif":0,"subunit":"Turkey","su_a3":"TUR","brk_diff":0,"name":"Turkey","name_long":"Turkey","brk_a3":"TUR","brk_name":"Turkey","brk_group":null,"abbrev":"Tur.","postal":"TR","formal_en":"Republic of Turkey","formal_fr":null,"name_ciawf":"Turkey","note_adm0":null,"note_brk":null,"name_sort":"Turkey","name_alt":null,"mapcolor7":6,"mapcolor8":3,"mapcolor9":8,"mapcolor13":4,"pop_est":83429615,"pop_rank":16,"pop_year":2019,"gdp_md":761425,"gdp_year":2019,"economy":"4. Emerging region: MIKT","income_grp":"3. Upper middle income","fips_10":"TU","iso_a2":"TR","iso_a2_eh":"TR","iso_a3":"TUR","iso_a3_eh":"TUR","iso_n3":"792","iso_n3_eh":"792","un_a3":"792","wb_a2":"TR","wb_a3":"TUR","woe_id":23424969,"woe_id_eh":23424969,"woe_note":"Exact WOE match as country","adm0_iso":"TUR","adm0_diff":null,"adm0_tlc":"TUR","adm0_a3_us":"TUR","adm0_a3_fr":"TUR","adm0_a3_ru":"TUR","adm0_a3_es":"TUR","adm0_a3_cn":"TUR","adm0_a3_tw":"TUR","adm0_a3_in":"TUR","adm0_a3_np":"TUR","adm0_a3_pk":"TUR","adm0_a3_de":"TUR","adm0_a3_gb":"TUR","adm0_a3_br":"TUR","adm0_a3_il":"TUR","adm0_a3_ps":"TUR","adm0_a3_sa":"TUR","adm0_a3_eg":"TUR","adm0_a3_ma":"TUR","adm0_a3_pt":"TUR","adm0_a3_ar":"TUR","adm0_a3_jp":"TUR","adm0_a3_ko":"TUR","adm0_a3_vn":"TUR","adm0_a3_tr":"TUR","adm0_a3_id":"TUR","adm0_a3_pl":"TUR","adm0_a3_gr":"TUR","adm0_a3_it":"TUR","adm0_a3_nl":"TUR","adm0_a3_se":"TUR","adm0_a3_bd":"TUR","adm0_a3_ua":"TUR","adm0_a3_un":-99,"adm0_a3_wb":-99,"continent":"Asia","region_un":"Asia","subregion":"Western Asia","region_wb":"Europe & Central Asia","name_len":6,"long_len":6,"abbrev_len":4,"tiny":-99,"homepart":1,"min_zoom":0,"min_label":2,"max_label":7,"label_x":34.508268,"label_y":39.345388,"ne_id":1159321331,"wikidataid":"Q43","name_ar":"تركيا","name_bn":"তুরস্ক","name_de":"Türkei","name_en":"Turkey","name_es":"Turquía","name_fa":"ترکیه","name_fr":"Turquie","name_el":"Τουρκία","name_he":"טורקיה","name_hi":"तुर्की","name_hu":"Törökország","name_id":"Turki","name_it":"Turchia","name_ja":"トルコ","name_ko":"터키","name_nl":"Turkije","name_pl":"Turcja","name_pt":"Turquia","name_ru":"Турция","name_sv":"Turkiet","name_tr":"Türkiye","name_uk":"Туреччина","name_ur":"ترکی","name_vi":"Thổ Nhĩ Kỳ","name_zh":"土耳其","name_zht":"土耳其","fclass_iso":"Admin-0 country","tlc_diff":null,"fclass_tlc":"Admin-0 country","fclass_us":null,"fclass_fr":null,"fclass_ru":null,"fclass_es":null,"fclass_cn":null,"fclass_tw":null,"fclass_in":null,"fclass_np":null,"fclass_pk":null,"fclass_de":null,"fclass_gb":null,"fclass_br":null,"fclass_il":null,"fclass_ps":null,"fclass_sa":null,"fclass_eg":null,"fclass_ma":null,"fclass_pt":null,"fclass_ar":null,"fclass_jp":null,"fclass_ko":null,"fclass_vn":null,"fclass_tr":null,"fclass_id":null,"fclass_pl":null,"fclass_gr":null,"fclass_it":null,"fclass_nl":null,"fclass_se":null,"fclass_bd":null,"fclass_ua":null,"filename":"TUR.geojson"}}},{"type":"Feature","properties":{"featurecla":"Admin-0 country","scalerank":1,"labelrank":5,"sovereignt":"Cyprus","sov_a3":"CYP","adm0_dif":0,"level":2,"type":"Sovereign country","tlc":"1","admin":"Cyprus","adm0_a3":"CYP","geou_dif":0,"geounit":"Cyprus","gu_a3":"CYP","su_dif":0,"subunit":"Cyprus","su_a3":"CYP","brk_diff":0,"name":"Cyprus","name_long":"Cyprus","brk_a3":"CYP","brk_name":"Cyprus","brk_group":null,"abbrev":"Cyp.","postal":"CY","formal_en":"Republic of Cyprus","formal_fr":null,"name_ciawf":"Cyprus","note_adm0":null,"note_brk":null,"name_sort":"Cyprus","name_alt":null,"mapcolor7":1,"mapcolor8":2,"mapcolor9":3,"mapcolor13":7,"pop_est":1198575,"pop_rank":12,"pop_year":2019,"gdp_md":24948,"gdp_year":2019,"economy":"6. Developing region","income_grp":"2. High income: nonOECD","fips_10":"CY","iso_a2":"CY","iso_a2_eh":"CY","iso_a3":"CYP","iso_a3_eh":"CYP","iso_n3":"196","iso_n3_eh":"196","un_a3":"196","wb_a2":"CY","wb_a3":"CYP","woe_id":-90,"woe_id_eh":23424994,"woe_note":"WOE lists as subunit of united Cyprus","adm0_iso":"CYP","adm0_diff":null,"adm0_tlc":"CYP","adm0_a3_us":"CYP","adm0_a3_fr":"CYP","adm0_a3_ru":"CYP","adm0_a3_es":"CYP","adm0_a3_cn":"CYP","adm0_a3_tw":"CYP","adm0_a3_in":"CYP","adm0_a3_np":"CYP","adm0_a3_pk":"CYP","adm0_a3_de":"CYP","adm0_a3_gb":"CYP","adm0_a3_br":"CYP","adm0_a3_il":"CYP","adm0_a3_ps":"CYP","adm0_a3_sa":"CYP","adm0_a3_eg":"CYP","adm0_a3_ma":"CYP","adm0_a3_pt":"CYP","adm0_a3_ar":"CYP","adm0_a3_jp":"CYP","adm0_a3_ko":"CYP","adm0_a3_vn":"CYP","adm0_a3_tr":"CYP","adm0_a3_id":"CYP","adm0_a3_pl":"CYP","adm0_a3_gr":"CYP","adm0_a3_it":"CYP","adm0_a3_nl":"CYP","adm0_a3_se":"CYP","adm0_a3_bd":"CYP","adm0_a3_ua":"CYP","adm0_a3_un":-99,"adm0_a3_wb":-99,"continent":"Asia","region_un":"Asia","subregion":"Western Asia","region_wb":"Europe & Central Asia","name_len":6,"long_len":6,"abbrev_len":4,"tiny":-99,"homepart":1,"min_zoom":0,"min_label":4.5,"max_label":9.5,"label_x":33.084182,"label_y":34.913329,"ne_id":1159320533,"wikidataid":"Q229","name_ar":"قبرص","name_bn":"সাইপ্রাস","name_de":"Republik Zypern","name_en":"Cyprus","name_es":"Chipre","name_fa":"قبرس","name_fr":"Chypre","name_el":"Κύπρος","name_he":"קפריסין","name_hi":"साइप्रस","name_hu":"Ciprus","name_id":"Siprus","name_it":"Cipro","name_ja":"キプロス","name_ko":"키프로스","name_nl":"Cyprus","name_pl":"Cypr","name_pt":"Chipre","name_ru":"Кипр","name_sv":"Cypern","name_tr":"Kıbrıs Cumhuriyeti","name_uk":"Кіпр","name_ur":"قبرص","name_vi":"Cộng hòa Síp","name_zh":"塞浦路斯","name_zht":"賽普勒斯","fclass_iso":"Admin-0 country","tlc_diff":null,"fclass_tlc":"Admin-0 country","fclass_us":null,"fclass_fr":null,"fclass_ru":null,"fclass_es":null,"fclass_cn":null,"fclass_tw":null,"fclass_in":null,"fclass_np":null,"fclass_pk":null,"fclass_de":null,"fclass_gb":null,"fclass_br":null,"fclass_il":null,"fclass_ps":null,"fclass_sa":null,"fclass_eg":null,"fclass_ma":null,"fclass_pt":null,"fclass_ar":null,"fclass_jp":null,"fclass_ko":null,"fclass_vn":null,"fclass_tr":null,"fclass_id":null,"fclass_pl":null,"fclass_gr":null,"fclass_it":null,"fclass_nl":null,"fclass_se":null,"fclass_bd":null,"fclass_ua":null,"filename":"CYP.geojson"}}},{"type":"Feature","properties":{"featurecla":"Admin-0 country","scalerank":1,"labelrank":3,"sovereignt":"Greece","sov_a3":"GRC","adm0_dif":0,"level":2,"type":"Sovereign country","tlc":"1","admin":"Greece","adm0_a3":"GRC","geou_dif":0,"geounit":"Greece","gu_a3":"GRC","su_dif":0,"subunit":"Greece","su_a3":"GRC","brk_diff":0,"name":"Greece","name_long":"Greece","brk_a3":"GRC","brk_name":"Greece","brk_group":null,"abbrev":"Greece","postal":"GR","formal_en":"Hellenic Republic","formal_fr":null,"name_ciawf":"Greece","note_adm0":null,"note_brk":null,"name_sort":"Greece","name_alt":null,"mapcolor7":2,"mapcolor8":2,"mapcolor9":2,"mapcolor13":9,"pop_est":10716322,"pop_rank":14,"pop_year":2019,"gdp_md":209852,"gdp_year":2019,"economy":"2. Developed region: nonG7","income_grp":"1. High income: OECD","fips_10":"GR","iso_a2":"GR","iso_a2_eh":"GR","iso_a3":"GRC","iso_a3_eh":"GRC","iso_n3":"300","iso_n3_eh":"300","un_a3":"300","wb_a2":"GR","wb_a3":"GRC","woe_id":23424833,"woe_id_eh":23424833,"woe_note":"Exact WOE match as country","adm0_iso":"GRC","adm0_diff":null,"adm0_tlc":"GRC","adm0_a3_us":"GRC","adm0_a3_fr":"GRC","adm0_a3_ru":"GRC","adm0_a3_es":"GRC","adm0_a3_cn":"GRC","adm0_a3_tw":"GRC","adm0_a3_in":"GRC","adm0_a3_np":"GRC","adm0_a3_pk":"GRC","adm0_a3_de":"GRC","adm0_a3_gb":"GRC","adm0_a3_br":"GRC","adm0_a3_il":"GRC","adm0_a3_ps":"GRC","adm0_a3_sa":"GRC","adm0_a3_eg":"GRC","adm0_a3_ma":"GRC","adm0_a3_pt":"GRC","adm0_a3_ar":"GRC","adm0_a3_jp":"GRC","adm0_a3_ko":"GRC","adm0_a3_vn":"GRC","adm0_a3_tr":"GRC","adm0_a3_id":"GRC","adm0_a3_pl":"GRC","adm0_a3_gr":"GRC","adm0_a3_it":"GRC","adm0_a3_nl":"GRC","adm0_a3_se":"GRC","adm0_a3_bd":"GRC","adm0_a3_ua":"GRC","adm0_a3_un":-99,"adm0_a3_wb":-99,"continent":"Europe","region_un":"Europe","subregion":"Southern Europe","region_wb":"Europe & Central Asia","name_len":6,"long_len":6,"abbrev_len":6,"tiny":-99,"homepart":1,"min_zoom":0,"min_label":2.7,"max_label":8,"label_x":21.72568,"label_y":39.492763,"ne_id":1159320811,"wikidataid":"Q41","name_ar":"اليونان","name_bn":"গ্রিস","name_de":"Griechenland","name_en":"Greece","name_es":"Grecia","name_fa":"یونان","name_fr":"Grèce","name_el":"Ελλάδα","name_he":"יוון","name_hi":"यूनान","name_hu":"Görögország","name_id":"Yunani","name_it":"Grecia","name_ja":"ギリシャ","name_ko":"그리스","name_nl":"Griekenland","name_pl":"Grecja","name_pt":"Grécia","name_ru":"Греция","name_sv":"Grekland","name_tr":"Yunanistan","name_uk":"Греція","name_ur":"یونان","name_vi":"Hy Lạp","name_zh":"希腊","name_zht":"希臘","fclass_iso":"Admin-0 country","tlc_diff":null,"fclass_tlc":"Admin-0 country","fclass_us":null,"fclass_fr":null,"fclass_ru":null,"fclass_es":null,"fclass_cn":null,"fclass_tw":null,"fclass_in":null,"fclass_np":null,"fclass_pk":null,"fclass_de":null,"fclass_gb":null,"fclass_br":null,"fclass_il":null,"fclass_ps":null,"fclass_sa":null,"fclass_eg":null,"fclass_ma":null,"fclass_pt":null,"fclass_ar":null,"fclass_jp":null,"fclass_ko":null,"fclass_vn":null,"fclass_tr":null,"fclass_id":null,"fclass_pl":null,"fclass_gr":null,"fclass_it":null,"fclass_nl":null,"fclass_se":null,"fclass_bd":null,"fclass_ua":null,"filename":"GRC.geojson"}}}]}